{
    "links": {
        "self": "http://www.neowsapp.com/rest/v1/neo/3675191?api_key=iIulBulltgU6a56xZRHN4H3l9WmuAYTsLGpBGhQ2"
    },
    "id": "3675191",
    "neo_reference_id": "3675191",
    "name": "(2014 MY67)",
    "designation": "2014 MY67",
    "nasa_jpl_url": "http://ssd.jpl.nasa.gov/sbdb.cgi?sstr=3675191",
    "absolute_magnitude_h": 23.7,
    "estimated_diameter": {
        "kilometers": {
            "estimated_diameter_min": 0.0483676488,
            "estimated_diameter_max": 0.1081533507
        },
        "meters": {
            "estimated_diameter_min": 48.3676488219,
            "estimated_diameter_max": 108.1533506775
        },
        "miles": {
            "estimated_diameter_min": 0.0300542543,
            "estimated_diameter_max": 0.0672033557
        },
        "feet": {
            "estimated_diameter_min": 158.6865169607,
            "estimated_diameter_max": 354.8338390368
        }
    },
    "is_potentially_hazardous_asteroid": false,
    "close_approach_data": [
        {
            "close_approach_date": "2014-01-29",
            "close_approach_date_full": "2014-Jan-29 08:15",
            "epoch_date_close_approach": 1390983300000,
            "relative_velocity": {
                "kilometers_per_second": "5.4951685694",
                "kilometers_per_hour": "19782.6068498156",
                "miles_per_hour": "12292.1425728757"
            },
            "miss_distance": {
                "astronomical": "0.4834443805",
                "lunar": "188.0598640145",
                "kilometers": "72322249.586269535",
                "miles": "44938962.045548183"
            },
            "orbiting_body": "Earth"
        },
        {
            "close_approach_date": "2014-06-09",
            "close_approach_date_full": "2014-Jun-09 10:28",
            "epoch_date_close_approach": 1402309680000,
            "relative_velocity": {
                "kilometers_per_second": "9.4328220872",
                "kilometers_per_hour": "33958.1595139664",
                "miles_per_hour": "21100.2797268865"
            },
            "miss_distance": {
                "astronomical": "0.095980954",
                "lunar": "37.336591106",
                "kilometers": "14358546.27896798",
                "miles": "8921986.939718924"
            },
            "orbiting_body": "Earth"
        }
    ],
    "orbital_data": {
        "orbit_id": "4",
        "orbit_determination_date": "2017-04-06 08:39:45",
        "first_observation_date": "2014-06-27",
        "last_observation_date": "2014-07-02",
        "data_arc_in_days": 5,
        "observations_used": 12,
        "orbit_uncertainty": "8",
        "minimum_orbit_intersection": ".0713884",
        "jupiter_tisserand_invariant": "4.248",
        "epoch_osculation": "2456838.5",
        "eccentricity": ".4497761002535717",
        "semi_major_axis": "1.591981307644429",
        "inclination": "7.411781584776121",
        "ascending_node_longitude": "297.5891490029808",
        "orbital_period": "733.6777913886361",
        "perihelion_distance": ".8759461634155363",
        "perihelion_argument": "267.1457008740758",
        "aphelion_distance": "2.308016451873322",
        "perihelion_time": "2456774.582805730733",
        "mean_anomaly": "31.36280013789787",
        "mean_motion": ".4906786115450298",
        "equinox": "J2000",
        "orbit_class": {
            "orbit_class_type": "APO",
            "orbit_class_description": "Near-Earth asteroid orbits which cross the Earth’s orbit similar to that of 1862 Apollo",
            "orbit_class_range": "a (semi-major axis) > 1.0 AU; q (perihelion) < 1.017 AU"
        }
    },
    "is_sentry_object": false
}